MINOR PLANET CENTER ORBIT DATABASE (MPCORB)

This file contains published orbital elements for all numbered and unnumbered
multi-opposition minor planets for which it is possible to make reasonable
predictions.  It also includes published elements for recent one-opposition
minor planets and is intended to be complete through the last issued Daily
Orbit Update MPEC.  As such it is intended to be of interest primarily
to astrometric observers.

   Software programs may include this datafile amongst their datasets, as
   long as this header is included (it is acceptable if it is contained
   in a file separate from the actual data) and that proper attribution
   to the Minor Planet Center is given.  Credit to the individual orbit
   computers is implicit by the inclusion of a reference and the name of
   the orbit computer on each orbit record.  Information on how to obtain
   updated copies of the datafile must also be included.

   The work of the individual astrometric observers, without whom none of
   the work of the Minor Planet Center would be possible, is gratefully
   acknowledged.  Credit to the individual observers is implicit by the
   inclusion of the reference to the publication of their observations in
   all data sets distributed by the Minor Planet Center.

New versions of this file, updated on a daily basis, will be available at:

          http://www.minorplanetcenter.org/iau/MPCORB/MPCORB.DAT

The elements contained within MPCORB are divided into three sections,
separated by blank lines.  The first section contains the numbered objects,
the second section contains the unnumbered objects with perturbed orbit
solutions and the third contains the recent 1-opposition objects with
unperturbed orbit solutions.  Each object's elements are stored on a single
line, the format of which is described at:

          http://www.minorplanetcenter.org/iau/info/MPOrbitFormat.html

A brief header is given below:

Des'n     H     G   Epoch     M        Peri.      Node       Incl.       e            n           a        Reference #Obs #Opp    Arc    rms  Perts   Computer

----------------------------------------------------------------------------------------------------------------------------------------------------------------
00001    3.34  0.12 K14C9  95.98921   72.52200   80.32927   10.59338  0.0758228  0.21407760   2.7675059  0 MPO309141  6532 107 1802-2014 0.60 M-v 30h MPCLINUX   0000      (1) Ceres              20140924
00002    4.13  0.11 K14C9  78.22871  309.93032  173.09624   34.84100  0.2312737  0.21360273   2.7716062  0 MPO319080  7712 103 1821-2014 0.58 M-v 28h MPCLINUX   0000      (2) Pallas             20140519
00003    5.33  0.32 K14C9  33.07717  248.40995  169.87117   12.98166  0.2554482  0.22582205   2.6707003  0 MPO319080  6660 101 1821-2014 0.60 M-v 38h MPCLINUX   0000      (3) Juno               20141106
00004    3.20  0.32 K14C9  20.86389  151.19843  103.85141    7.14043  0.0887401  0.27154465   2.3617933  0 MPO309141  6751  96 1821-2014 0.60 M-p 18h MPCLINUX   0000      (4) Vesta              20140924
00005    6.85  0.15 K14C9 260.18955  358.92895  141.59557    5.36852  0.1911355  0.23869295   2.5738091  0 MPO319080  2083  73 1845-2014 0.58 M-v 38h MPCLINUX   0000      (5) Astraea            20141221
00006    5.71  0.24 K14C9  29.21427  239.40791  138.70362   14.74817  0.2014490  0.26094084   2.4253514  0 MPO309141  5430  86 1848-2014 0.54 M-v 38h MPCLINUX   0007      (6) Hebe               20140914
00007    5.51  0.15 K14C9  72.14869  145.46124  259.62073    5.52270  0.2307945  0.26731189   2.3866599  0 MPO319080  4852  82 1848-2014 0.58 M-v 38h MPCLINUX   0000      (7) Iris               20141217
00008    6.49  0.28 K14C9  71.83875  285.46692  110.92229    5.88777  0.1563371  0.30164107   2.2019582  0 MPO319080  2167  83 1847-2014 0.66 M-v 38h MPCLINUX   0000      (8) Flora              20141207
00009    6.28  0.17 K14C9 209.68566    5.86880   68.94474    5.57444  0.1222902  0.26734971   2.3864348  0 MPO305425  2311  73 1849-2014 0.63 M-v 38h MPCLINUX   0000      (9) Metis              20140825
00010    5.43  0.15 K14C9 228.70373  312.45815  283.42118    3.84106  0.1152780  0.17718482   3.1394365  0 MPO319080  2791  87 1849-2014 0.59 M-v 38h MPCLINUX   0000     (10) Hygiea             20141231